HST                     
1 20580U 90037B   24066.09340649  .00006559  00000+0  32080-3 0  9997
2 20580  28.4689 315.0319 0002856 357.2881   2.7695 15.16197365661366
